[{"OBJECT_NAME":"HAWK-2B","OBJECT_ID":"2021-006CZ","EPOCH":"2026-03-09T16:13:51.664224","MEAN_MOTION":15.33301353,"ECCENTRICITY":0.00071021,"INCLINATION":97.2334,"RA_OF_ASC_NODE":114.114,"ARG_OF_PERICENTER":185.9063,"MEAN_ANOMALY":174.2098,"EPHEMERIS_TYPE":0,"CLASSIFICATION_TYPE":"U","NORAD_CAT_ID":47508,"ELEMENT_SET_NO":999,"REV_AT_EPOCH":28424,"BSTAR":0.00029650607,"MEAN_MOTION_DOT":9.474e-5,"MEAN_MOTION_DDOT":0},{"OBJECT_NAME":"STARLINK-33575","OBJECT_ID":"2025-015C","EPOCH":"2026-03-09T23:22:19.413120","MEAN_MOTION":15.30204787,"ECCENTRICITY":9.424e-5,"INCLINATION":53.1594,"RA_OF_ASC_NODE":321.1786,"ARG_OF_PERICENTER":133.3549,"MEAN_ANOMALY":226.753,"EPHEMERIS_TYPE":0,"CLASSIFICATION_TYPE":"U","NORAD_CAT_ID":62760,"ELEMENT_SET_NO":999,"REV_AT_EPOCH":6376,"BSTAR":0.00076854083,"MEAN_MOTION_DOT":0.00022475,"MEAN_MOTION_DDOT":0}]
